{
  "49737": {
    "noradId": "49737",
    "tle": [
      "1 49737C 21115P   25312.92062500 -.00000306  00000+0 -19192-4 0  3122",
      "2 49737  53.2163 331.2748 0001567  87.9626 298.4063 15.08835783    18"
    ]
  },
  "49738": {
    "noradId": "49738",
    "tle": [
      "1 49738C 21115Q   25312.90534722  .00001504  00000+0  94336-4 0  3123",
      "2 49738  53.2168 331.5492 0001332  85.7778  72.2279 15.08832516    15"
    ]
  },
  "49739": {
    "noradId": "49739",
    "tle": [
      "1 49739C 21115R   25312.91020833  .00007543  00000+0  47288-3 0  3120",
      "2 49739  53.2167 341.3194 0001441  87.2990 307.4421 15.08839761    18"
    ]
  },
  "49740": {
    "noradId": "49740",
    "tle": [
      "1 49740C 21115S   25312.91298611  .00000564  00000+0  35384-4 0  3124",
      "2 49740  53.2165 331.2801 0001554  99.1802 160.5223 15.08826300    13"
    ]
  },
  "49741": {
    "noradId": "49741",
    "tle": [
      "1 49741C 21115T   25312.91993056 -.00025036  00000+0 -15689-2 0  3127",
      "2 49741  53.2167 331.2898 0001762  71.8820 245.4333 15.08885558    15"
    ]
  },
  "49742": {
    "noradId": "49742",
    "tle": [
      "1 49742C 21115U   25312.91298611 -.00051925  00000+0 -32544-2 0  3128",
      "2 49742  53.2170 331.3095 0001473  90.4999 114.3587 15.08909807    12"
    ]
  },
  "49743": {
    "noradId": "49743",
    "tle": [
      "1 49743C 21115V   25312.91437500  .00007648  00000+0  47961-3 0  3122",
      "2 49743  53.2164 331.2357 0001361  82.9367 224.3056 15.08829704    17"
    ]
  },
  "49744": {
    "noradId": "49744",
    "tle": [
      "1 49744C 21115W   25312.91854167  .00003967  00000+0  24873-3 0  3122",
      "2 49744  53.2167 331.1772 0001305  87.1150 162.7953 15.08840744    14"
    ]
  },
  "49745": {
    "noradId": "49745",
    "tle": [
      "1 49745C 21115X   25312.91368056  .00008083  00000+0  50708-3 0  3120",
      "2 49745  53.2168 331.2766 0000837  91.4613 151.9949 15.08815729    11"
    ]
  },
  "49746": {
    "noradId": "49746",
    "tle": [
      "1 49746C 21115Y   25312.91090278  .00011116  00000+0  69720-3 0  3124",
      "2 49746  53.2163 331.3163 0001328  87.9283  25.5953 15.08818390    16"
    ]
  },
  "49747": {
    "noradId": "49747",
    "tle": [
      "1 49747C 21115Z   25312.90812500  .00005677  00000+0  35606-3 0  3125",
      "2 49747  53.2167 331.3315 0001677  90.3777  68.0502 15.08826193    15"
    ]
  },
  "49748": {
    "noradId": "49748",
    "tle": [
      "1 49748C 21115AA  25312.90951389 -.00002700  00000+0 -16930-3 0  3120",
      "2 49748  53.2164 330.9001 0001353  82.3796 203.8858 15.08839225    16"
    ]
  },
  "49749": {
    "noradId": "49749",
    "tle": [
      "1 49749C 21115AB  25312.90881944 -.00010601  00000+0 -66482-3 0  3126",
      "2 49749  53.2159 331.5680 0001445  85.5428 271.2991 15.08846732    18"
    ]
  },
  "49750": {
    "noradId": "49750",
    "tle": [
      "1 49750C 21115AC  25312.90673611  .00008261  00000+0  51806-3 0  3129",
      "2 49750  53.2164 331.3462 0001335  89.6035 276.0593 15.08829405    18"
    ]
  },
  "49751": {
    "noradId": "49751",
    "tle": [
      "1 49751C 21115AD  25312.91020833 -.00005510  00000+0 -34552-3 0  3128",
      "2 49751  53.2167 331.2443 0001381  89.3203  40.4657 15.08846010    10"
    ]
  },
  "49752": {
    "noradId": "49752",
    "tle": [
      "1 49752C 21115AE  25312.90812500  .00004382  00000+0  27475-3 0  3128",
      "2 49752  53.2166 321.3399 0001324  87.1338 201.0874 15.08836360    15"
    ]
  },
  "49753": {
    "noradId": "49753",
    "tle": [
      "1 49753C 21115AF  25312.91368056 -.00010754  00000+0 -67436-3 0  3125",
      "2 49753  53.2160 331.3048 0001253  88.4037 340.2118 15.08847388    12"
    ]
  },
  "49754": {
    "noradId": "49754",
    "tle": [
      "1 49754C 21115AG  25312.91437500 -.00008990  00000+0 -56374-3 0  3125",
      "2 49754  53.2166 321.4064 0001312  88.0477 219.2655 15.08848915    15"
    ]
  },
  "49755": {
    "noradId": "49755",
    "tle": [
      "1 49755C 21115AH  25312.91645833 -.00011234  00000+0 -70448-3 0  3129",
      "2 49755  53.2163 331.3420 0001346  87.9776 290.5072 15.08847745    11"
    ]
  },
  "49756": {
    "noradId": "49756",
    "tle": [
      "1 49756C 21115AJ  25312.90812500  .00008447  00000+0  52999-3 0  3127",
      "2 49756  53.2160 321.3297 0001363  85.3062 148.1347 15.08808456    18"
    ]
  },
  "49757": {
    "noradId": "49757",
    "tle": [
      "1 49757C 21115AK  25312.90812500 -.00005410  00000+0 -33930-3 0  3121",
      "2 49757  53.2163 321.3393 0001315  82.7035 185.5306 15.08841047    10"
    ]
  },
  "49758": {
    "noradId": "49758",
    "tle": [
      "1 49758C 21115AL  25312.90604167 -.00015122  00000+0 -94827-3 0  3123",
      "2 49758  53.2157 321.3385 0001426  89.1491  92.9545 15.08852123    18"
    ]
  },
  "49759": {
    "noradId": "49759",
    "tle": [
      "1 49759C 21115AM  25312.91020833  .00001487  00000+0  93255-4 0  3129",
      "2 49759  53.2162 321.3195 0001291  92.4515 172.3042 15.08838623    12"
    ]
  },
  "49760": {
    "noradId": "49760",
    "tle": [
      "1 49760C 21115AN  25312.91368056  .00000516  00000+0  32322-4 0  3123",
      "2 49760  53.2159 321.3049 0001377  94.1385  89.4523 15.08848611    17"
    ]
  },
  "49761": {
    "noradId": "49761",
    "tle": [
      "1 49761C 21115AP  25312.89979167  .00010812  00000+0  67778-3 0  3124",
      "2 49761  53.2161 321.3685 0001525  87.8037  80.2324 15.08838154    14"
    ]
  },
  "49762": {
    "noradId": "49762",
    "tle": [
      "1 49762C 21115AQ  25312.90812500  .00006754  00000+0  42360-3 0  3124",
      "2 49762  53.2164 321.3305 0001108  82.2050  31.2263 15.08825594    10"
    ]
  },
  "49763": {
    "noradId": "49763",
    "tle": [
      "1 49763C 21115AR  25312.90673611 -.00016793  00000+0 -10524-2 0  3125",
      "2 49763  53.2159 321.3363 0001417  85.5379  80.3256 15.08878144    18"
    ]
  },
  "49765": {
    "noradId": "49765",
    "tle": [
      "1 49765C 21115AT  25312.91298611  .00008232  00000+0  51642-3 0  3125",
      "2 49765  53.2158 321.3183 0001459  90.8301  63.8385 15.08815915    15"
    ]
  },
  "49766": {
    "noradId": "49766",
    "tle": [
      "1 49766C 21115AU  25312.91854167 -.00003031  00000+0 -19005-3 0  3121",
      "2 49766  53.2165 321.2940 0001372  87.2263  17.6166 15.08844669    17"
    ]
  },
  "49767": {
    "noradId": "49767",
    "tle": [
      "1 49767C 21115AV  25312.91159722 -.00002852  00000+0 -17881-3 0  3127",
      "2 49767  53.2162 321.3149 0001349  86.0022  26.3007 15.08844612    10"
    ]
  },
  "49768": {
    "noradId": "49768",
    "tle": [
      "1 49768C 21115AW  25312.91159722 -.00001595  00000+0 -10004-3 0  3121",
      "2 49768  53.2169 321.3164 0001379  83.9270 308.3789 15.08837025    19"
    ]
  },
  "49769": {
    "noradId": "49769",
    "tle": [
      "1 49769C 21115AX  25312.90534722 -.00004548  00000+0 -28523-3 0  3124",
      "2 49769  53.2170 321.3918 0001366  84.6119 268.4975 15.08840435    17"
    ]
  },
  "49770": {
    "noradId": "49770",
    "tle": [
      "1 49770C 21115AY  25312.91437500  .00003194  00000+0  20030-3 0  3122",
      "2 49770  53.2168 321.3497 0001253  76.2463 285.9197 15.08837902    17"
    ]
  },
  "49771": {
    "noradId": "49771",
    "tle": [
      "1 49771C 21115AZ  25312.91506944  .00012567  00000+0  78807-3 0  3121",
      "2 49771  53.2167 321.2985 0001518  95.5169 275.5332 15.08825593    18"
    ]
  },
  "50156": {
    "noradId": "50156",
    "tle": [
      "1 50156C 21125A   25312.88520833  .00611230  00000+0  80393-2 0  3124",
      "2 50156  53.2224  66.2428 0001058  65.1113 202.4793 15.57244927    10"
    ]
  },
  "50158": {
    "noradId": "50158",
    "tle": [
      "1 50158C 21125C   25312.87756944  .01248200  00000+0  28250-2 0  3127",
      "2 50158  53.2162  69.4828 0001481  79.9184 244.4639 15.95613598    14"
    ]
  },
  "50159": {
    "noradId": "50159",
    "tle": [
      "1 50159C 21125D   25312.91576389  .00118240  00000+0  74214-2 0  3126",
      "2 50159  53.2160  81.3070 0001202  81.9995 147.7831 15.08686069    15"
    ]
  },
  "50161": {
    "noradId": "50161",
    "tle": [
      "1 50161C 21125F   25312.91090278  .00015867  00000+0  99427-3 0  3122",
      "2 50161  53.2155  81.3199 0001303  85.8983  62.4813 15.08849462    17"
    ]
  },
  "50163": {
    "noradId": "50163",
    "tle": [
      "1 50163C 21125H   25312.92131944  .00014397  00000+0  90269-3 0  3123",
      "2 50163  53.2169  61.2598 0001184  89.3117 205.7962 15.08828445    14"
    ]
  },
  "50165": {
    "noradId": "50165",
    "tle": [
      "1 50165C 21125K   25312.91437500  .00005783  00000+0  36267-3 0  3128",
      "2 50165  53.2166  81.3004 0001295  87.4209 159.9644 15.08829436    10"
    ]
  },
  "50166": {
    "noradId": "50166",
    "tle": [
      "1 50166C 21125L   25312.91715278  .00013489  00000+0  84563-3 0  3124",
      "2 50166  53.2169  71.2211 0001311  86.8788  85.4499 15.08834718    16"
    ]
  },
  "50167": {
    "noradId": "50167",
    "tle": [
      "1 50167C 21125M   25312.91159722  .00007348  00000+0  46075-3 0  3124",
      "2 50167  53.2169  81.3233 0001307  86.4899 180.5924 15.08830940    10"
    ]
  },
  "50168": {
    "noradId": "50168",
    "tle": [
      "1 50168C 21125N   25312.89354167  .00011194  00000+0  70209-3 0  3122",
      "2 50168  53.2172  71.4813 0001066  84.6853 259.2006 15.08818699    13"
    ]
  },
  "50169": {
    "noradId": "50169",
    "tle": [
      "1 50169C 21125P   25312.90812500  .00016237  00000+0  10183-2 0  3122",
      "2 50169  53.2159  71.3309 0001423  96.0284 172.4074 15.08820206    18"
    ]
  },
  "50170": {
    "noradId": "50170",
    "tle": [
      "1 50170C 21125Q   25312.91437500  .00015946  00000+0  99987-3 0  3124",
      "2 50170  53.2165  71.3014 0001340  91.0530  91.3527 15.08824425    16"
    ]
  }
}